{
  "norad_id": 67030,
  "name": "STARLINK-36138",
  "history": [
    {
      "epoch": "2026-03-28T07:06:52.259616Z",
      "apogee_km": 483.2271137032867,
      "perigee_km": 482.62745668476146,
      "latitude_deg": 1.172717265696113e-05,
      "longitude_deg": 0.6692456002146119,
      "height_km": 482.7308109935367,
      "semi_major_axis_km": 6861.064285194024,
      "eccentricity": 4.37e-05,
      "inclination_deg": 43.0053,
      "raan_deg": 293.1059,
      "arg_perigee_deg": 264.8132,
      "mean_anomaly_deg": 95.267,
      "mean_motion_rev_day": 15.27620681
    },
    {
      "epoch": "2026-03-28T21:14:16.425312Z",
      "apogee_km": 483.0991440470534,
      "perigee_km": 482.84665520274666,
      "latitude_deg": 1.760394587894186e-05,
      "longitude_deg": 144.91483465749542,
      "height_km": 482.83708618566806,
      "semi_major_axis_km": 6861.109899624899,
      "eccentricity": 1.84e-05,
      "inclination_deg": 43.0045,
      "raan_deg": 289.7822,
      "arg_perigee_deg": 134.4642,
      "mean_anomaly_deg": 225.6225,
      "mean_motion_rev_day": 15.27605447
    },
    {
      "epoch": "2026-03-30T04:00:01.999584Z",
      "apogee_km": 484.25194686208215,
      "perigee_km": 481.84998217946213,
      "latitude_deg": -24.480845209333776,
      "longitude_deg": -115.98043674408483,
      "height_km": 488.42201421853866,
      "semi_major_axis_km": 6861.187964520772,
      "eccentricity": 0.00017504,
      "inclination_deg": 43.0037,
      "raan_deg": 282.544,
      "arg_perigee_deg": 277.6404,
      "mean_anomaly_deg": 299.5106,
      "mean_motion_rev_day": 15.27579376
    },
    {
      "epoch": "2026-03-30T12:28:11.648064Z",
      "apogee_km": 484.370001238497,
      "perigee_km": 481.48067066758176,
      "latitude_deg": 3.011592827405383e-05,
      "longitude_deg": -94.4080469717258,
      "height_km": 482.759649752594,
      "semi_major_axis_km": 6861.062335953039,
      "eccentricity": 0.00021056,
      "inclination_deg": 42.9922,
      "raan_deg": 280.5506,
      "arg_perigee_deg": 92.4693,
      "mean_anomaly_deg": 267.64,
      "mean_motion_rev_day": 15.27621332
    },
    {
      "epoch": "2026-03-30T21:53:07.373760Z",
      "apogee_km": 484.9406282317932,
      "perigee_km": 480.94487260674487,
      "latitude_deg": 3.232071119943367e-05,
      "longitude_deg": 121.75528541911463,
      "height_km": 483.1401904244787,
      "semi_major_axis_km": 6861.079750419269,
      "eccentricity": 0.00029119,
      "inclination_deg": 43.0065,
      "raan_deg": 278.3328,
      "arg_perigee_deg": 257.8932,
      "mean_anomaly_deg": 102.1594,
      "mean_motion_rev_day": 15.27615516
    },
    {
      "epoch": "2026-03-31T12:00:32.106240Z",
      "apogee_km": 483.5758061462302,
      "perigee_km": 482.3309299098555,
      "latitude_deg": -5.613758379705832e-05,
      "longitude_deg": -94.00019315009769,
      "height_km": 482.764176487478,
      "semi_major_axis_km": 6861.090368028043,
      "eccentricity": 9.072e-05,
      "inclination_deg": 43.0001,
      "raan_deg": 275.0105,
      "arg_perigee_deg": 266.8205,
      "mean_anomaly_deg": 93.2542,
      "mean_motion_rev_day": 15.2761197
    },
    {
      "epoch": "2026-04-01T13:07:03.764640Z",
      "apogee_km": 485.87448094550655,
      "perigee_km": 480.13444999549483,
      "latitude_deg": -5.0338267108749336e-05,
      "longitude_deg": -117.57067710882441,
      "height_km": 481.7752808404954,
      "semi_major_axis_km": 6861.1414654705,
      "eccentricity": 0.0004183,
      "inclination_deg": 43.0051,
      "raan_deg": 269.1031,
      "arg_perigee_deg": 290.5671,
      "mean_anomaly_deg": 69.4731,
      "mean_motion_rev_day": 15.27594905
    },
    {
      "epoch": "2026-04-02T18:56:01.238208Z",
      "apogee_km": 484.18657806566625,
      "perigee_km": 481.3598830506771,
      "latitude_deg": 1.4579681220549575e-05,
      "longitude_deg": 146.9518218531322,
      "height_km": 482.15995857469875,
      "semi_major_axis_km": 6860.910230558172,
      "eccentricity": 0.000206,
      "inclination_deg": 43.0048,
      "raan_deg": 262.0895,
      "arg_perigee_deg": 286.0607,
      "mean_anomaly_deg": 74.0018,
      "mean_motion_rev_day": 15.27672133
    }
  ]
}